[
    {
        "Altitude(m)": 612502.1878793899,
        "Argument of Periapsis(deg)": 0.0,
        "Eccentricity": 0.0,
        "Inclination(deg)": 60.0,
        "Latitude(deg)": -28.13595137378308,
        "Longitude(deg)": 82.14826137286585,
        "Mean Anomaly(deg)": -32.727299999999985,
        "RAAN(deg)": 200.0,
        "Satellite Name": "Test1 900",
        "Satellite Number": 900,
        "Semi-Major Axis(m)": 6980739.136638005,
        "Time(s)": 0
    },
    {
        "Altitude(m)": 612308.6358069453,
        "Argument of Periapsis(deg)": 0.00010418945913296404,
        "Eccentricity": 0.0,
        "Inclination(deg)": 60.0,
        "Latitude(deg)": -27.623006537539545,
        "Longitude(deg)": 82.50173519539337,
        "Mean Anomaly(deg)": -32.10719385453813,
        "RAAN(deg)": 199.99957995086027,
        "Satellite Name": "Test1 900",
        "Satellite Number": 900,
        "Semi-Major Axis(m)": 6980739.136638005,
        "Time(s)": 10
    }
]